{
  "type": "FeatureCollection",
  "club": "Buitensport Durf",
  "version": "2026-09-28",
  "logo": "https://www.buitensportdurf.nl/wp-content/uploads/2020/09/icon-150x150.png",
  "features": [
    {
      "type": "Feature",
      "id": "a1b2c3d4-0007-4000-8000-e0f1a2b3c4d5",
      "geometry": {
        "type": "Point",
        "coordinates": [
          4.368715,
          52.030272
        ]
      },
      "properties": {
        "name": "Parking",
        "kind": "landmark",
        "icon": "car",
        "notes": "Gratis parkeren"
      }
    },
    {
      "type": "Feature",
      "id": "a649aeb7-edef-42aa-aeae-7cf35345f76e",
      "geometry": {
        "type": "Point",
        "coordinates": [
          4.369308,
          52.029975
        ]
      },
      "properties": {
        "name": "Fietsenstalling",
        "kind": "landmark",
        "icon": "bike"
      }
    },
    {
      "type": "Feature",
      "id": "cb3af5c4-f8ba-46f4-9761-b2d2934da632",
      "geometry": {
        "type": "Point",
        "coordinates": [
          4.368956,
          52.029264
        ]
      },
      "properties": {
        "name": "Verzamelpunt",
        "kind": "landmark",
        "icon": "house"
      }
    },
    {
      "type": "Feature",
      "id": "073ad15e-a39f-4bd5-a49b-b98f38729f5a",
      "geometry": {
        "type": "Polygon",
        "coordinates": [
          [
            [
              4.369116,
              52.030154
            ],
            [
              4.36916,
              52.030118
            ],
            [
              4.369001,
              52.030045
            ],
            [
              4.368957,
              52.030081
            ],
            [
              4.369116,
              52.030154
            ]
          ]
        ]
      },
      "properties": {
        "name": "Horizontaal Net Combi",
        "kind": "combi",
        "members": [
          {
            "name": "Horizontaal daknet"
          },
          {
            "name": "Steigerbuis"
          },
          {
            "name": "Touwgordijn"
          },
          {
            "name": "Zwevende lianen"
          },
          {
            "name": "Enterplank"
          }
        ]
      }
    },
    {
      "type": "Feature",
      "id": "2518687a-ee7c-4095-8065-3441ca82d70f",
      "geometry": {
        "type": "LineString",
        "coordinates": [
          [
            4.368854,
            52.030002
          ],
          [
            4.368868,
            52.030048
          ],
          [
            4.368967,
            52.03
          ],
          [
            4.368966,
            52.030074
          ]
        ]
      },
      "properties": {
        "name": "Zigzag apenhang",
        "kind": "obstacle"
      }
    },
    {
      "type": "Feature",
      "id": "3e8ceedc-75de-41b3-826a-3112d258293c",
      "geometry": {
        "type": "LineString",
        "coordinates": [
          [
            4.368455,
            52.029834
          ],
          [
            4.368854,
            52.030002
          ]
        ]
      },
      "properties": {
        "name": "Apenhang langs sloot",
        "kind": "obstacle"
      }
    },
    {
      "type": "Feature",
      "id": "3e8c3487-a2a3-424d-b11e-207727c71f1d",
      "geometry": {
        "type": "Point",
        "coordinates": [
          4.368456,
          52.029786
        ]
      },
      "properties": {
        "name": "Korte touw swingover",
        "kind": "obstacle"
      }
    },
    {
      "type": "Feature",
      "id": "38b67e3e-ef36-4394-8b26-e153a94b6cf8",
      "geometry": {
        "type": "Point",
        "coordinates": [
          4.368393,
          52.029744
        ]
      },
      "properties": {
        "name": "Borstwaartsom stangen",
        "kind": "obstacle"
      }
    },
    {
      "type": "Feature",
      "id": "af8571b7-ad15-4da6-8df5-73d09a99fdcb",
      "geometry": {
        "type": "Polygon",
        "coordinates": [
          [
            [
              4.368618,
              52.029612
            ],
            [
              4.368475,
              52.029743
            ],
            [
              4.368421,
              52.02972
            ],
            [
              4.368564,
              52.02959
            ],
            [
              4.368618,
              52.029612
            ]
          ]
        ]
      },
      "properties": {
        "name": "Spaanse ruiter",
        "kind": "combi",
        "members": [
          {
            "name": "Spaanse ruiter"
          },
          {
            "name": "apenhang"
          }
        ]
      }
    },
    {
      "type": "Feature",
      "id": "534d9d7e-1822-4a15-baf3-9e3936fdef37",
      "geometry": {
        "type": "Polygon",
        "coordinates": [
          [
            [
              4.36874,
              52.029529
            ],
            [
              4.368987,
              52.029295
            ],
            [
              4.368901,
              52.029261
            ],
            [
              4.368654,
              52.029494
            ],
            [
              4.36874,
              52.029529
            ]
          ]
        ]
      },
      "properties": {
        "name": "Wifi combi",
        "kind": "combi",
        "members": [
          {
            "name": "Lage swingovers"
          },
          {
            "name": "Lianen langs bomen"
          },
          {
            "name": "Brandweerslang apenhang"
          },
          {
            "name": "Beltrums lusjes"
          },
          {
            "name": "Brandweerslang apenhang 2x"
          },
          {
            "name": "Apenhang met schot / plaat"
          },
          {
            "name": "Moeilijk swingovers"
          },
          {
            "name": "Autobanden apenhang"
          },
          {
            "name": "Selfmade apenhang"
          },
          {
            "name": "Schuiflussen"
          },
          {
            "name": "Palentarzan"
          },
          {
            "name": "Monkeybar Xtra"
          },
          {
            "name": "Pegboard en ringpegs"
          }
        ]
      }
    },
    {
      "type": "Feature",
      "id": "5bae9d94-f90f-4b3e-bc17-b33c4c4bfc42",
      "geometry": {
        "type": "Point",
        "coordinates": [
          4.369254,
          52.028959
        ]
      },
      "properties": {
        "name": "Houthak station",
        "kind": "obstacle"
      }
    },
    {
      "type": "Feature",
      "id": "ad2bc5de-c6a0-410a-8654-604dae4bbe17",
      "geometry": {
        "type": "Polygon",
        "coordinates": [
          [
            [
              4.369648,
              52.028647
            ],
            [
              4.369571,
              52.028614
            ],
            [
              4.369237,
              52.028908
            ],
            [
              4.369314,
              52.028941
            ],
            [
              4.369648,
              52.028647
            ]
          ]
        ]
      },
      "properties": {
        "name": "Mini Maxi Combi",
        "kind": "combi",
        "members": [
          {
            "name": "Kabouter tarzan"
          },
          {
            "name": "Balpol lianen"
          },
          {
            "name": "Friesche ruiters"
          },
          {
            "name": "Staplussen"
          },
          {
            "name": "Lianen"
          },
          {
            "name": "Hoge swingovers"
          },
          {
            "name": "Schuine daknet met oversteek"
          },
          {
            "name": "Boomdoorsteek apenhang"
          }
        ]
      }
    },
    {
      "type": "Feature",
      "id": "f05f9f7d-6ff3-4010-9f05-4e8bb529a483",
      "geometry": {
        "type": "Point",
        "coordinates": [
          4.369715,
          52.028555
        ]
      },
      "properties": {
        "name": "Wentelteefje / wiebertje",
        "kind": "obstacle"
      }
    },
    {
      "type": "Feature",
      "id": "11e3486d-2d9d-4160-8bd1-cd96876c86a5",
      "geometry": {
        "type": "Polygon",
        "coordinates": [
          [
            [
              4.369824,
              52.028404
            ],
            [
              4.36989,
              52.028433
            ],
            [
              4.369809,
              52.028506
            ],
            [
              4.369744,
              52.028478
            ],
            [
              4.369824,
              52.028404
            ]
          ]
        ]
      },
      "properties": {
        "name": "Friesche ruiter",
        "kind": "combi",
        "members": [
          {
            "name": "Friesche ruiter"
          },
          {
            "name": "Zwevende balk"
          }
        ]
      }
    },
    {
      "type": "Feature",
      "id": "af5c724f-b396-412e-8270-df2a70fa32be",
      "geometry": {
        "type": "Polygon",
        "coordinates": [
          [
            [
              4.369862,
              52.028357
            ],
            [
              4.369945,
              52.028392
            ],
            [
              4.370047,
              52.028302
            ],
            [
              4.369963,
              52.028266
            ],
            [
              4.369862,
              52.028357
            ]
          ]
        ]
      },
      "properties": {
        "name": "Apenkooi",
        "kind": "combi",
        "members": [
          {
            "name": "Triangels"
          },
          {
            "name": "Rekstokken"
          },
          {
            "name": "Kartbandjes"
          },
          {
            "name": "Rijplaten"
          },
          {
            "name": "Beltrums lusje"
          },
          {
            "name": "Pakplanken"
          },
          {
            "name": "Autobanden SO"
          }
        ]
      }
    },
    {
      "type": "Feature",
      "id": "d144610a-da8b-4db1-8c9b-dcfa8033a898",
      "geometry": {
        "type": "LineString",
        "coordinates": [
          [
            4.36984,
            52.028412
          ],
          [
            4.369886,
            52.028368
          ]
        ]
      },
      "properties": {
        "name": "Apenhang",
        "kind": "obstacle"
      }
    },
    {
      "type": "Feature",
      "id": "8fb6cd83-77c7-4449-b3d4-c6b16b3fd471",
      "geometry": {
        "type": "LineString",
        "coordinates": [
          [
            4.369747,
            52.028482
          ],
          [
            4.369571,
            52.028492
          ],
          [
            4.369596,
            52.028602
          ]
        ]
      },
      "properties": {
        "name": "AV40 apenhang",
        "kind": "obstacle"
      }
    },
    {
      "type": "Feature",
      "id": "dd3eb0b3-0689-4a9b-b470-04ca4affa3ed",
      "geometry": {
        "type": "LineString",
        "coordinates": [
          [
            4.369841,
            52.028372
          ],
          [
            4.369692,
            52.028295
          ]
        ]
      },
      "properties": {
        "name": "Apenhang",
        "kind": "obstacle"
      }
    },
    {
      "type": "Feature",
      "id": "8a70a168-12aa-47ee-9497-b72de6df2941",
      "geometry": {
        "type": "Point",
        "coordinates": [
          4.369695,
          52.028294
        ]
      },
      "properties": {
        "name": "Grote zwaai (Veni Vidi Vici)",
        "kind": "obstacle"
      }
    },
    {
      "type": "Feature",
      "id": "e05329e1-31b4-46ad-b82c-f6689291fe19",
      "geometry": {
        "type": "Point",
        "coordinates": [
          4.370275,
          52.028239
        ]
      },
      "properties": {
        "name": "Postmanwalk",
        "kind": "obstacle"
      }
    },
    {
      "type": "Feature",
      "id": "5b419ad0-8759-4421-8c06-824fb18bf399",
      "geometry": {
        "type": "Point",
        "coordinates": [
          4.37033,
          52.028257
        ]
      },
      "properties": {
        "name": "Evenwichtsbalken",
        "kind": "obstacle"
      }
    },
    {
      "type": "Feature",
      "id": "b69395bc-70c1-4ff0-ac1f-2335c2ec6fa3",
      "geometry": {
        "type": "Polygon",
        "coordinates": [
          [
            [
              4.370567,
              52.028406
            ],
            [
              4.37053,
              52.028438
            ],
            [
              4.370373,
              52.028368
            ],
            [
              4.37041,
              52.028336
            ],
            [
              4.370567,
              52.028406
            ]
          ]
        ]
      },
      "properties": {
        "name": "Lianen combi",
        "kind": "combi",
        "members": [
          {
            "name": "Korte touwtjes"
          },
          {
            "name": "Monkeybars"
          },
          {
            "name": "Sstaplussen"
          },
          {
            "name": "Lianen"
          },
          {
            "name": "Zwaailussen"
          }
        ]
      }
    },
    {
      "type": "Feature",
      "id": "a223405f-fc39-4e3c-9acd-ec3c836c4c2d",
      "geometry": {
        "type": "LineString",
        "coordinates": [
          [
            4.370597,
            52.02833
          ],
          [
            4.370519,
            52.028388
          ]
        ]
      },
      "properties": {
        "name": "Apenhang",
        "kind": "obstacle"
      }
    },
    {
      "type": "Feature",
      "id": "99a6cfd8-f673-4114-8ef6-8199e30134d3",
      "geometry": {
        "type": "LineString",
        "coordinates": [
          [
            4.370552,
            52.028302
          ],
          [
            4.370465,
            52.028364
          ]
        ]
      },
      "properties": {
        "name": "Apenhang",
        "kind": "obstacle"
      }
    },
    {
      "type": "Feature",
      "id": "0d601762-068c-40a6-a105-1b0f0d3e74e2",
      "geometry": {
        "type": "LineString",
        "coordinates": [
          [
            4.370552,
            52.028302
          ],
          [
            4.370597,
            52.02833
          ]
        ]
      },
      "properties": {
        "name": "Postmanwalk",
        "kind": "obstacle"
      }
    },
    {
      "type": "Feature",
      "id": "330b73b2-5112-4593-8e62-f91e4d9fb3be",
      "geometry": {
        "type": "Polygon",
        "coordinates": [
          [
            [
              4.37062,
              52.028473
            ],
            [
              4.370684,
              52.028503
            ],
            [
              4.370717,
              52.028476
            ],
            [
              4.370653,
              52.028446
            ],
            [
              4.37062,
              52.028473
            ]
          ]
        ]
      },
      "properties": {
        "name": "Werner weaver",
        "kind": "combi",
        "members": [
          {
            "name": "Werner weaver"
          },
          {
            "name": "Balkenladder"
          }
        ]
      }
    },
    {
      "type": "Feature",
      "id": "9d3b9693-27f7-4253-9f00-813250ac4b2a",
      "geometry": {
        "type": "LineString",
        "coordinates": [
          [
            4.370717,
            52.028476
          ],
          [
            4.370803,
            52.028474
          ],
          [
            4.371161,
            52.028622
          ],
          [
            4.371232,
            52.028621
          ]
        ]
      },
      "properties": {
        "name": "\"Lange Mark\"apenhang over sloot",
        "kind": "obstacle"
      }
    },
    {
      "type": "Feature",
      "id": "71fe9f4f-e00b-4d82-8175-5a542f1748e7",
      "geometry": {
        "type": "LineString",
        "coordinates": [
          [
            4.370802,
            52.028532
          ],
          [
            4.370684,
            52.028503
          ]
        ]
      },
      "properties": {
        "name": "Apenhang",
        "kind": "obstacle"
      }
    },
    {
      "type": "Feature",
      "id": "3e3ae31e-44b5-4b81-a9a6-1a003df1a54a",
      "geometry": {
        "type": "LineString",
        "coordinates": [
          [
            4.370802,
            52.028532
          ],
          [
            4.370804,
            52.028423
          ]
        ]
      },
      "properties": {
        "name": "Apenhang",
        "kind": "obstacle"
      }
    },
    {
      "type": "Feature",
      "id": "1b9bafa8-04b9-48a4-94e2-4c6c1005b7c3",
      "geometry": {
        "type": "LineString",
        "coordinates": [
          [
            4.370802,
            52.028532
          ],
          [
            4.370897,
            52.028456
          ]
        ]
      },
      "properties": {
        "name": "Apenhang",
        "kind": "obstacle"
      }
    },
    {
      "type": "Feature",
      "id": "dbe1eb5c-3edd-4ec5-ac9d-ca41c9830b8a",
      "geometry": {
        "type": "Polygon",
        "coordinates": [
          [
            [
              4.37114,
              52.028648
            ],
            [
              4.371095,
              52.028683
            ],
            [
              4.371173,
              52.028721
            ],
            [
              4.371218,
              52.028685
            ],
            [
              4.37114,
              52.028648
            ]
          ]
        ]
      },
      "properties": {
        "name": "Notenkraker",
        "kind": "combi",
        "members": [
          {
            "name": "Notenkraker (zwevende balken)"
          },
          {
            "name": "Evenwichtsbalk"
          },
          {
            "name": "Brievenbus balken"
          }
        ]
      }
    },
    {
      "type": "Feature",
      "id": "28e61403-493a-4e6c-97a1-442f278ace20",
      "geometry": {
        "type": "LineString",
        "coordinates": [
          [
            4.371218,
            52.028685
          ],
          [
            4.371283,
            52.028643
          ]
        ]
      },
      "properties": {
        "name": "XTC-ton apenhang",
        "kind": "obstacle"
      }
    },
    {
      "type": "Feature",
      "id": "c83d7f2e-def8-463d-8e63-53d21b7cff7d",
      "geometry": {
        "type": "LineString",
        "coordinates": [
          [
            4.371173,
            52.028664
          ],
          [
            4.371232,
            52.028621
          ]
        ]
      },
      "properties": {
        "name": "Autobanden lianen",
        "kind": "obstacle"
      }
    },
    {
      "type": "Feature",
      "id": "e3d6678d-1530-464d-9368-bb295d77650a",
      "geometry": {
        "type": "Point",
        "coordinates": [
          4.369112,
          52.029073
        ]
      },
      "properties": {
        "name": "Balkenopslag",
        "kind": "landmark",
        "icon": "flag"
      }
    },
    {
      "type": "Feature",
      "id": "9d511acf-ff3f-4e0b-b0c2-bad9a6df4ae1",
      "geometry": {
        "type": "Point",
        "coordinates": [
          4.371731,
          52.028967
        ]
      },
      "properties": {
        "name": "Paalklim",
        "kind": "obstacle"
      }
    },
    {
      "type": "Feature",
      "id": "f6f163a3-028a-4ee5-a87e-df03dcb96ac1",
      "geometry": {
        "type": "LineString",
        "coordinates": [
          [
            4.371754,
            52.028938
          ],
          [
            4.371814,
            52.028884
          ]
        ]
      },
      "properties": {
        "name": "Touwkruis",
        "kind": "obstacle"
      }
    },
    {
      "type": "Feature",
      "id": "78a17d9c-fb4f-4ed9-aa45-3c41fd9d6993",
      "geometry": {
        "type": "Point",
        "coordinates": [
          4.371584,
          52.029525
        ]
      },
      "properties": {
        "name": "Dikke balk swingover",
        "kind": "obstacle"
      }
    },
    {
      "type": "Feature",
      "id": "a8d33bd1-b879-41f1-ac8a-4d0eed0feebf",
      "geometry": {
        "type": "Polygon",
        "coordinates": [
          [
            [
              4.371375,
              52.029696
            ],
            [
              4.371322,
              52.029744
            ],
            [
              4.371394,
              52.029774
            ],
            [
              4.371447,
              52.029726
            ],
            [
              4.371375,
              52.029696
            ]
          ]
        ]
      },
      "properties": {
        "name": "Tarzan Cirkel",
        "kind": "combi",
        "members": [
          {
            "name": "Lianen"
          },
          {
            "name": "Entertouw"
          }
        ]
      }
    },
    {
      "type": "Feature",
      "id": "71b06109-321f-415b-975a-fc3a7985aa70",
      "geometry": {
        "type": "LineString",
        "coordinates": [
          [
            4.369868,
            52.028291
          ],
          [
            4.369846,
            52.028336
          ]
        ]
      },
      "properties": {
        "name": "Verticale net",
        "kind": "obstacle"
      }
    },
    {
      "type": "Feature",
      "id": "e4d8ec12-c2d8-44b9-b35d-49ea38cdae46",
      "geometry": {
        "type": "Point",
        "coordinates": [
          4.369915,
          52.028273
        ]
      },
      "properties": {
        "name": "Elastiek swingovers",
        "kind": "obstacle",
        "notes": "Paar naast elkaar dacht ik"
      }
    },
    {
      "type": "Feature",
      "id": "601ef2a1-3fa1-4c88-a7a5-db75deabde81",
      "geometry": {
        "type": "Point",
        "coordinates": [
          4.368388,
          52.029783
        ]
      },
      "properties": {
        "name": "PVC klimbuis",
        "kind": "obstacle"
      }
    },
    {
      "type": "Feature",
      "id": "d7d737ab-2137-4af1-816e-14fbd9621927",
      "geometry": {
        "type": "Point",
        "coordinates": [
          4.371454,
          52.029707
        ]
      },
      "properties": {
        "name": "Huilebalk swingovers",
        "kind": "obstacle"
      }
    },
    {
      "type": "Feature",
      "id": "58cc4378-bb5d-4b27-a384-51877287444c",
      "geometry": {
        "type": "Point",
        "coordinates": [
          4.371412,
          52.029687
        ]
      },
      "properties": {
        "name": "Zwevende balk swingovers",
        "kind": "obstacle"
      }
    },
    {
      "type": "Feature",
      "id": "649d7847-d3b2-42e9-a7a7-06ab8deeb8db",
      "geometry": {
        "type": "Point",
        "coordinates": [
          4.369136,
          52.029683
        ]
      },
      "properties": {
        "name": "Veld A",
        "kind": "landmark",
        "icon": "flag"
      }
    },
    {
      "type": "Feature",
      "id": "ac4453ac-c6a4-47b5-abe0-3e9ca3db1187",
      "geometry": {
        "type": "Point",
        "coordinates": [
          4.37015,
          52.028914
        ]
      },
      "properties": {
        "name": "Veld B",
        "kind": "landmark",
        "icon": "flag"
      }
    },
    {
      "type": "Feature",
      "id": "de992c9f-5b12-4e98-8d6a-3f2a126876df",
      "geometry": {
        "type": "Point",
        "coordinates": [
          4.371024,
          52.029304
        ]
      },
      "properties": {
        "name": "Veld C",
        "kind": "landmark",
        "icon": "flag"
      }
    },
    {
      "type": "Feature",
      "id": "c87577a8-7f9c-4dfb-ad28-ae0ce31c9dde",
      "geometry": {
        "type": "Point",
        "coordinates": [
          4.370622,
          52.03034
        ]
      },
      "properties": {
        "name": "Veld D",
        "kind": "landmark",
        "icon": "flag"
      }
    },
    {
      "type": "Feature",
      "id": "a0b144e1-dcd5-4734-91e3-336a57d57beb",
      "geometry": {
        "type": "Point",
        "coordinates": [
          4.372264,
          52.029845
        ]
      },
      "properties": {
        "name": "Veld E",
        "kind": "landmark",
        "icon": "flag"
      }
    }
  ]
}